[{"OBJECT_NAME":"STARLINK-30529","OBJECT_ID":"2023-156V","EPOCH":"2025-09-10T09:21:06.734592","MEAN_MOTION":15.30194654,"ECCENTRICITY":0.00013756,"INCLINATION":53.16,"RA_OF_ASC_NODE":285.9603,"ARG_OF_PERICENTER":106.4516,"MEAN_ANOMALY":253.6636,"EPHEMERIS_TYPE":0,"CLASSIFICATION_TYPE":"U","NORAD_CAT_ID":58047,"ELEMENT_SET_NO":999,"REV_AT_EPOCH":10737,"BSTAR":4.4224963e-5,"MEAN_MOTION_DOT":9.51e-6,"MEAN_MOTION_DDOT":0},{"OBJECT_NAME":"STARLINK-30554","OBJECT_ID":"2023-156W","EPOCH":"2025-09-09T08:49:30.927648","MEAN_MOTION":15.3020817,"ECCENTRICITY":8.195e-5,"INCLINATION":53.1592,"RA_OF_ASC_NODE":290.2652,"ARG_OF_PERICENTER":72.7346,"MEAN_ANOMALY":287.3745,"EPHEMERIS_TYPE":0,"CLASSIFICATION_TYPE":"U","NORAD_CAT_ID":58048,"ELEMENT_SET_NO":999,"REV_AT_EPOCH":10722,"BSTAR":7.3478538e-5,"MEAN_MOTION_DOT":1.818e-5,"MEAN_MOTION_DDOT":0},{"OBJECT_NAME":"STARLINK-30568","OBJECT_ID":"2023-158A","EPOCH":"2025-09-10T08:56:57.744384","MEAN_MOTION":15.02535321,"ECCENTRICITY":0.00013089,"INCLINATION":43.0039,"RA_OF_ASC_NODE":290.4134,"ARG_OF_PERICENTER":270.5013,"MEAN_ANOMALY":89.5679,"EPHEMERIS_TYPE":0,"CLASSIFICATION_TYPE":"U","NORAD_CAT_ID":58051,"ELEMENT_SET_NO":999,"REV_AT_EPOCH":10640,"BSTAR":6.1198372e-5,"MEAN_MOTION_DOT":6.23e-6,"MEAN_MOTION_DDOT":0},{"OBJECT_NAME":"STARLINK-30575","OBJECT_ID":"2023-158B","EPOCH":"2025-09-10T09:06:33.390432","MEAN_MOTION":15.0253237,"ECCENTRICITY":0.00013124,"INCLINATION":43.0034,"RA_OF_ASC_NODE":290.4644,"ARG_OF_PERICENTER":265.6922,"MEAN_ANOMALY":94.377,"EPHEMERIS_TYPE":0,"CLASSIFICATION_TYPE":"U","NORAD_CAT_ID":58052,"ELEMENT_SET_NO":999,"REV_AT_EPOCH":10640,"BSTAR":0.00012993498,"MEAN_MOTION_DOT":1.552e-5,"MEAN_MOTION_DDOT":0},{"OBJECT_NAME":"STARLINK-30577","OBJECT_ID":"2023-158C","EPOCH":"2025-09-10T08:52:10.075584","MEAN_MOTION":15.02534081,"ECCENTRICITY":0.00014317,"INCLINATION":43.0033,"RA_OF_ASC_NODE":290.3721,"ARG_OF_PERICENTER":269.6137,"MEAN_ANOMALY":90.4541,"EPHEMERIS_TYPE":0,"CLASSIFICATION_TYPE":"U","NORAD_CAT_ID":58053,"ELEMENT_SET_NO":999,"REV_AT_EPOCH":10640,"BSTAR":0.00013041029,"MEAN_MOTION_DOT":1.558e-5,"MEAN_MOTION_DDOT":0},{"OBJECT_NAME":"STARLINK-30566","OBJECT_ID":"2023-158D","EPOCH":"2025-09-10T03:55:23.283552","MEAN_MOTION":15.02486737,"ECCENTRICITY":0.00014173,"INCLINATION":43.0056,"RA_OF_ASC_NODE":291.4239,"ARG_OF_PERICENTER":279.1011,"MEAN_ANOMALY":80.9671,"EPHEMERIS_TYPE":0,"CLASSIFICATION_TYPE":"U","NORAD_CAT_ID":58054,"ELEMENT_SET_NO":999,"REV_AT_EPOCH":10637,"BSTAR":-0.00880355,"MEAN_MOTION_DOT":-0.00117012,"MEAN_MOTION_DDOT":0},{"OBJECT_NAME":"STARLINK-30544","OBJECT_ID":"2023-158E","EPOCH":"2025-09-10T09:54:20.292768","MEAN_MOTION":15.02531382,"ECCENTRICITY":0.00013817,"INCLINATION":43.0031,"RA_OF_ASC_NODE":289.8524,"ARG_OF_PERICENTER":269.7109,"MEAN_ANOMALY":90.3575,"EPHEMERIS_TYPE":0,"CLASSIFICATION_TYPE":"U","NORAD_CAT_ID":58055,"ELEMENT_SET_NO":999,"REV_AT_EPOCH":10641,"BSTAR":8.9518893e-5,"MEAN_MOTION_DOT":1.006e-5,"MEAN_MOTION_DDOT":0},{"OBJECT_NAME":"STARLINK-30553","OBJECT_ID":"2023-158F","EPOCH":"2025-09-10T10:08:42.768672","MEAN_MOTION":15.02538757,"ECCENTRICITY":0.00014135,"INCLINATION":43.0034,"RA_OF_ASC_NODE":289.9277,"ARG_OF_PERICENTER":268.0235,"MEAN_ANOMALY":92.0445,"EPHEMERIS_TYPE":0,"CLASSIFICATION_TYPE":"U","NORAD_CAT_ID":58056,"ELEMENT_SET_NO":999,"REV_AT_EPOCH":10641,"BSTAR":0.00012660082,"MEAN_MOTION_DOT":1.507e-5,"MEAN_MOTION_DDOT":0},{"OBJECT_NAME":"STARLINK-30541","OBJECT_ID":"2023-158G","EPOCH":"2025-09-10T03:50:36.194496","MEAN_MOTION":15.02532387,"ECCENTRICITY":0.00014909,"INCLINATION":43.0031,"RA_OF_ASC_NODE":291.3985,"ARG_OF_PERICENTER":271.0278,"MEAN_ANOMALY":89.0394,"EPHEMERIS_TYPE":0,"CLASSIFICATION_TYPE":"U","NORAD_CAT_ID":58057,"ELEMENT_SET_NO":999,"REV_AT_EPOCH":10637,"BSTAR":0.00014468816,"MEAN_MOTION_DOT":1.751e-5,"MEAN_MOTION_DDOT":0},{"OBJECT_NAME":"STARLINK-30573","OBJECT_ID":"2023-158H","EPOCH":"2025-09-10T03:41:00.839616","MEAN_MOTION":15.02530665,"ECCENTRICITY":0.00015714,"INCLINATION":43.004,"RA_OF_ASC_NODE":291.3487,"ARG_OF_PERICENTER":270.0147,"MEAN_ANOMALY":90.0515,"EPHEMERIS_TYPE":0,"CLASSIFICATION_TYPE":"U","NORAD_CAT_ID":58058,"ELEMENT_SET_NO":999,"REV_AT_EPOCH":10637,"BSTAR":7.6003729e-5,"MEAN_MOTION_DOT":8.23e-6,"MEAN_MOTION_DDOT":0},{"OBJECT_NAME":"STARLINK-30582","OBJECT_ID":"2023-158J","EPOCH":"2025-09-10T09:49:32.185056","MEAN_MOTION":15.02534358,"ECCENTRICITY":0.00015249,"INCLINATION":43.0035,"RA_OF_ASC_NODE":289.8295,"ARG_OF_PERICENTER":276.8967,"MEAN_ANOMALY":83.1702,"EPHEMERIS_TYPE":0,"CLASSIFICATION_TYPE":"U","NORAD_CAT_ID":58059,"ELEMENT_SET_NO":999,"REV_AT_EPOCH":10641,"BSTAR":9.7177056e-5,"MEAN_MOTION_DOT":1.109e-5,"MEAN_MOTION_DDOT":0},{"OBJECT_NAME":"STARLINK-30558","OBJECT_ID":"2023-158K","EPOCH":"2025-09-10T09:11:20.455296","MEAN_MOTION":15.02532717,"ECCENTRICITY":0.00013279,"INCLINATION":43.0035,"RA_OF_ASC_NODE":290.4739,"ARG_OF_PERICENTER":266.8573,"MEAN_ANOMALY":93.2118,"EPHEMERIS_TYPE":0,"CLASSIFICATION_TYPE":"U","NORAD_CAT_ID":58060,"ELEMENT_SET_NO":999,"REV_AT_EPOCH":10640,"BSTAR":0.00011826354,"MEAN_MOTION_DOT":1.394e-5,"MEAN_MOTION_DDOT":0},{"OBJECT_NAME":"STARLINK-30579","OBJECT_ID":"2023-158L","EPOCH":"2025-09-10T00:11:14.977536","MEAN_MOTION":15.02534997,"ECCENTRICITY":0.00014262,"INCLINATION":43.0035,"RA_OF_ASC_NODE":266.6643,"ARG_OF_PERICENTER":265.4003,"MEAN_ANOMALY":94.6677,"EPHEMERIS_TYPE":0,"CLASSIFICATION_TYPE":"U","NORAD_CAT_ID":58061,"ELEMENT_SET_NO":999,"REV_AT_EPOCH":10664,"BSTAR":6.4469565e-5,"MEAN_MOTION_DOT":6.67e-6,"MEAN_MOTION_DDOT":0},{"OBJECT_NAME":"STARLINK-30588","OBJECT_ID":"2023-158M","EPOCH":"2025-09-10T09:39:57.669984","MEAN_MOTION":15.0253007,"ECCENTRICITY":0.00013166,"INCLINATION":43.0034,"RA_OF_ASC_NODE":289.7767,"ARG_OF_PERICENTER":284.873,"MEAN_ANOMALY":75.1967,"EPHEMERIS_TYPE":0,"CLASSIFICATION_TYPE":"U","NORAD_CAT_ID":58062,"ELEMENT_SET_NO":999,"REV_AT_EPOCH":10641,"BSTAR":0.00012829955,"MEAN_MOTION_DOT":1.53e-5,"MEAN_MOTION_DDOT":0},{"OBJECT_NAME":"STARLINK-30585","OBJECT_ID":"2023-158N","EPOCH":"2025-09-10T09:25:33.990528","MEAN_MOTION":15.02534043,"ECCENTRICITY":0.00013215,"INCLINATION":43.0021,"RA_OF_ASC_NODE":289.706,"ARG_OF_PERICENTER":269.7948,"MEAN_ANOMALY":90.2743,"EPHEMERIS_TYPE":0,"CLASSIFICATION_TYPE":"U","NORAD_CAT_ID":58063,"ELEMENT_SET_NO":999,"REV_AT_EPOCH":10641,"BSTAR":6.3200526e-5,"MEAN_MOTION_DOT":6.5e-6,"MEAN_MOTION_DDOT":0},{"OBJECT_NAME":"STARLINK-30587","OBJECT_ID":"2023-158P","EPOCH":"2025-09-10T09:44:44.343456","MEAN_MOTION":15.02536635,"ECCENTRICITY":0.00010735,"INCLINATION":43.003,"RA_OF_ASC_NODE":289.8049,"ARG_OF_PERICENTER":281.9514,"MEAN_ANOMALY":78.1208,"EPHEMERIS_TYPE":0,"CLASSIFICATION_TYPE":"U","NORAD_CAT_ID":58064,"ELEMENT_SET_NO":999,"REV_AT_EPOCH":10641,"BSTAR":0.00013953033,"MEAN_MOTION_DOT":1.682e-5,"MEAN_MOTION_DDOT":0}]
