STARLINK-30529          
1 58047U 23156V   25253.38966128  .00000951  00000+0  44225-4 0  9996
2 58047  53.1600 285.9603 0001375 106.4516 253.6636 15.30194654107370
STARLINK-30554          
1 58048U 23156W   25252.36771907  .00001818  00000+0  73479-4 0  9999
2 58048  53.1592 290.2652 0000819  72.7346 287.3745 15.30208170107220
STARLINK-30568          
1 58051U 23158A   25253.37289056  .00000623  00000+0  61198-4 0  9994
2 58051  43.0039 290.4134 0001308 270.5013  89.5679 15.02535321106405
STARLINK-30575          
1 58052U 23158B   25253.37955313  .00001552  00000+0  12993-3 0  9991
2 58052  43.0034 290.4644 0001312 265.6922  94.3770 15.02532370106403
STARLINK-30577          
1 58053U 23158C   25253.36956106  .00001558  00000+0  13041-3 0  9993
2 58053  43.0033 290.3721 0001431 269.6137  90.4541 15.02534081106406
STARLINK-30566          
1 58054U 23158D   25253.16346393 -.00117012  00000+0 -88036-2 0  9993
2 58054  43.0056 291.4239 0001417 279.1011  80.9671 15.02486737106377
STARLINK-30544          
1 58055U 23158E   25253.41273487  .00001006  00000+0  89519-4 0  9997
2 58055  43.0031 289.8524 0001381 269.7109  90.3575 15.02531382106412
STARLINK-30553          
1 58056U 23158F   25253.42271723  .00001507  00000+0  12660-3 0  9998
2 58056  43.0034 289.9277 0001413 268.0235  92.0445 15.02538757106418
STARLINK-30541          
1 58057U 23158G   25253.16014114  .00001751  00000+0  14469-3 0  9999
2 58057  43.0031 291.3985 0001490 271.0278  89.0394 15.02532387106372
STARLINK-30573          
1 58058U 23158H   25253.15348194  .00000823  00000+0  76004-4 0  9990
2 58058  43.0040 291.3487 0001571 270.0147  90.0515 15.02530665106378
STARLINK-30582          
1 58059U 23158J   25253.40940029  .00001109  00000+0  97177-4 0  9996
2 58059  43.0035 289.8295 0001524 276.8967  83.1702 15.02534358106413
STARLINK-30558          
1 58060U 23158K   25253.38287564  .00001394  00000+0  11826-3 0  9995
2 58060  43.0035 290.4739 0001327 266.8573  93.2118 15.02532717106408
STARLINK-30579          
1 58061U 23158L   25253.00781224  .00000667  00000+0  64470-4 0  9993
2 58061  43.0035 266.6643 0001426 265.4003  94.6677 15.02534997106644
STARLINK-30588          
1 58062U 23158M   25253.40275081  .00001530  00000+0  12830-3 0  9999
2 58062  43.0034 289.7767 0001316 284.8730  75.1967 15.02530070106416
STARLINK-30585          
1 58063U 23158N   25253.39275452  .00000650  00000+0  63201-4 0  9991
2 58063  43.0021 289.7060 0001321 269.7948  90.2743 15.02534043106412
STARLINK-30587          
1 58064U 23158P   25253.40606879  .00001682  00000+0  13953-3 0  9999
2 58064  43.0030 289.8049 0001073 281.9514  78.1208 15.02536635106410
